STARLINK-36953          
1 68010U 26039AA  26080.91667824 -.01918777  00000+0 -31292-1 0  9993
2 68010  42.9992 340.5023 0001562 268.4397 176.9694 15.55287866  4843
STARLINK-36991          
1 68011U 26039AB  26080.91667824  .00034762  00000+0  59735-3 0  9998
2 68011  42.9998 341.6732 0002046 277.4623  53.6011 15.50502021  4841
STARLINK-36936          
1 68012U 26039AC  26080.91667824  .00066390  00000+0  11314-2 0  9991
2 68012  42.9994 340.9573 0001514 258.9904   1.7578 15.50491002  4846
STARLINK-36967          
1 68013U 26039AD  26080.91667824  .00034991  00000+0  60111-3 0  9994
2 68013  42.9999 341.6003 0001569 260.2409 100.6915 15.50507772  4840
STARLINK-36985          
1 68014U 26039AE  26080.91667824 -.01946769  00000+0 -31221-1 0  9991
2 68014  42.9991 340.4516 0001278 268.3046 196.8113 15.55792908  4841
STARLINK-36335          
1 68015U 26040A   26080.91667824 -.00029816  00000+0 -19982-3 0  9990
2 68015  97.2843  29.9601 0001452 118.4569 102.3386 15.75179564  4342
STARLINK-36923          
1 68016U 26040B   26080.91667824  .00107614  00000+0  71673-3 0  9997
2 68016  97.2852  29.9638 0001442  81.1237 145.7381 15.75078996  4398
STARLINK-36568          
1 68017U 26040C   26080.91667824  .00044848  00000+0  30077-3 0  9990
2 68017  97.2851  29.9648 0001279 100.3185 130.5072 15.75128589  4396
STARLINK-36930          
1 68018U 26040D   26080.91667824  .00013077  00000+0  88571-4 0  9994
2 68018  97.2851  29.9615 0001315  97.1186 125.7033 15.75148112  4393
STARLINK-36921          
1 68019U 26040E   26080.91667824  .00039386  00000+0  26420-3 0  9990
2 68019  97.2841  29.9750 0001645  68.5651 176.2460 15.75146683  4394
STARLINK-36928          
1 68020U 26040F   26080.91667824  .00085730  00000+0  57162-3 0  9993
2 68020  97.2846  29.9708 0001105 116.9183 121.9257 15.75120188  4396
STARLINK-36858          
1 68021U 26040G   26081.25179615 -.00841886  00000+0 -55151-2 0  9997
2 68021  97.2837  30.4865 0001325  95.3727 264.7691 15.77922441  3342
STARLINK-36916          
1 68022U 26040H   26080.91667824  .00054510  00000+0  36491-3 0  9999
2 68022  97.2855  29.9739 0001200  78.3569 172.4712 15.75131927  4397
STARLINK-36871          
1 68023U 26040J   26080.91667824  .00040694  00000+0  27298-3 0  9993
2 68023  97.2852  29.9742 0001470  97.6076 155.2155 15.75140325  4397
STARLINK-36891          
1 68024U 26040K   26080.91667824  .00074533  00000+0  49756-3 0  9996
2 68024  97.2854  29.9762 0001423  96.8852 159.9461 15.75127527  4393
STARLINK-36378          
1 68025U 26040L   26080.91667824  .00084805  00000+0  56649-3 0  9999
2 68025  97.2849  29.9831 0001538  56.4568 208.4334 15.75080002  4348
