[{"OBJECT_NAME":"STARLINK-36953","OBJECT_ID":"2026-039AA","EPOCH":"2026-03-21T22:00:00.999936","MEAN_MOTION":15.55287866,"ECCENTRICITY":0.00015622,"INCLINATION":42.9992,"RA_OF_ASC_NODE":340.5023,"ARG_OF_PERICENTER":268.4397,"MEAN_ANOMALY":176.9694,"EPHEMERIS_TYPE":0,"CLASSIFICATION_TYPE":"U","NORAD_CAT_ID":68010,"ELEMENT_SET_NO":999,"REV_AT_EPOCH":484,"BSTAR":-0.031292156,"MEAN_MOTION_DOT":-0.01918777,"MEAN_MOTION_DDOT":0},{"OBJECT_NAME":"STARLINK-36991","OBJECT_ID":"2026-039AB","EPOCH":"2026-03-21T22:00:00.999936","MEAN_MOTION":15.50502021,"ECCENTRICITY":0.00020462,"INCLINATION":42.9998,"RA_OF_ASC_NODE":341.6732,"ARG_OF_PERICENTER":277.4623,"MEAN_ANOMALY":53.6011,"EPHEMERIS_TYPE":0,"CLASSIFICATION_TYPE":"U","NORAD_CAT_ID":68011,"ELEMENT_SET_NO":999,"REV_AT_EPOCH":484,"BSTAR":0.0005973458,"MEAN_MOTION_DOT":0.00034762,"MEAN_MOTION_DDOT":0},{"OBJECT_NAME":"STARLINK-36936","OBJECT_ID":"2026-039AC","EPOCH":"2026-03-21T22:00:00.999936","MEAN_MOTION":15.50491002,"ECCENTRICITY":0.00015147,"INCLINATION":42.9994,"RA_OF_ASC_NODE":340.9573,"ARG_OF_PERICENTER":258.9904,"MEAN_ANOMALY":1.7578,"EPHEMERIS_TYPE":0,"CLASSIFICATION_TYPE":"U","NORAD_CAT_ID":68012,"ELEMENT_SET_NO":999,"REV_AT_EPOCH":484,"BSTAR":0.0011314295,"MEAN_MOTION_DOT":0.0006639,"MEAN_MOTION_DDOT":0},{"OBJECT_NAME":"STARLINK-36967","OBJECT_ID":"2026-039AD","EPOCH":"2026-03-21T22:00:00.999936","MEAN_MOTION":15.50507772,"ECCENTRICITY":0.00015699,"INCLINATION":42.9999,"RA_OF_ASC_NODE":341.6003,"ARG_OF_PERICENTER":260.2409,"MEAN_ANOMALY":100.6915,"EPHEMERIS_TYPE":0,"CLASSIFICATION_TYPE":"U","NORAD_CAT_ID":68013,"ELEMENT_SET_NO":999,"REV_AT_EPOCH":484,"BSTAR":0.00060110505,"MEAN_MOTION_DOT":0.00034991,"MEAN_MOTION_DDOT":0},{"OBJECT_NAME":"STARLINK-36985","OBJECT_ID":"2026-039AE","EPOCH":"2026-03-21T22:00:00.999936","MEAN_MOTION":15.55792908,"ECCENTRICITY":0.00012783,"INCLINATION":42.9991,"RA_OF_ASC_NODE":340.4516,"ARG_OF_PERICENTER":268.3046,"MEAN_ANOMALY":196.8113,"EPHEMERIS_TYPE":0,"CLASSIFICATION_TYPE":"U","NORAD_CAT_ID":68014,"ELEMENT_SET_NO":999,"REV_AT_EPOCH":484,"BSTAR":-0.031220722,"MEAN_MOTION_DOT":-0.01946769,"MEAN_MOTION_DDOT":0},{"OBJECT_NAME":"STARLINK-36335","OBJECT_ID":"2026-040A","EPOCH":"2026-03-21T22:00:00.999936","MEAN_MOTION":15.75179564,"ECCENTRICITY":0.00014523,"INCLINATION":97.2843,"RA_OF_ASC_NODE":29.9601,"ARG_OF_PERICENTER":118.4569,"MEAN_ANOMALY":102.3386,"EPHEMERIS_TYPE":0,"CLASSIFICATION_TYPE":"U","NORAD_CAT_ID":68015,"ELEMENT_SET_NO":999,"REV_AT_EPOCH":434,"BSTAR":-0.00019981655,"MEAN_MOTION_DOT":-0.00029816,"MEAN_MOTION_DDOT":0},{"OBJECT_NAME":"STARLINK-36923","OBJECT_ID":"2026-040B","EPOCH":"2026-03-21T22:00:00.999936","MEAN_MOTION":15.75078996,"ECCENTRICITY":0.00014426,"INCLINATION":97.2852,"RA_OF_ASC_NODE":29.9638,"ARG_OF_PERICENTER":81.1237,"MEAN_ANOMALY":145.7381,"EPHEMERIS_TYPE":0,"CLASSIFICATION_TYPE":"U","NORAD_CAT_ID":68016,"ELEMENT_SET_NO":999,"REV_AT_EPOCH":439,"BSTAR":0.00071672937,"MEAN_MOTION_DOT":0.00107614,"MEAN_MOTION_DDOT":0},{"OBJECT_NAME":"STARLINK-36568","OBJECT_ID":"2026-040C","EPOCH":"2026-03-21T22:00:00.999936","MEAN_MOTION":15.75128589,"ECCENTRICITY":0.00012792,"INCLINATION":97.2851,"RA_OF_ASC_NODE":29.9648,"ARG_OF_PERICENTER":100.3185,"MEAN_ANOMALY":130.5072,"EPHEMERIS_TYPE":0,"CLASSIFICATION_TYPE":"U","NORAD_CAT_ID":68017,"ELEMENT_SET_NO":999,"REV_AT_EPOCH":439,"BSTAR":0.00030076832,"MEAN_MOTION_DOT":0.00044848,"MEAN_MOTION_DDOT":0},{"OBJECT_NAME":"STARLINK-36930","OBJECT_ID":"2026-040D","EPOCH":"2026-03-21T22:00:00.999936","MEAN_MOTION":15.75148112,"ECCENTRICITY":0.00013156,"INCLINATION":97.2851,"RA_OF_ASC_NODE":29.9615,"ARG_OF_PERICENTER":97.1186,"MEAN_ANOMALY":125.7033,"EPHEMERIS_TYPE":0,"CLASSIFICATION_TYPE":"U","NORAD_CAT_ID":68018,"ELEMENT_SET_NO":999,"REV_AT_EPOCH":439,"BSTAR":8.8571176e-5,"MEAN_MOTION_DOT":0.00013077,"MEAN_MOTION_DDOT":0},{"OBJECT_NAME":"STARLINK-36921","OBJECT_ID":"2026-040E","EPOCH":"2026-03-21T22:00:00.999936","MEAN_MOTION":15.75146683,"ECCENTRICITY":0.00016453,"INCLINATION":97.2841,"RA_OF_ASC_NODE":29.975,"ARG_OF_PERICENTER":68.5651,"MEAN_ANOMALY":176.246,"EPHEMERIS_TYPE":0,"CLASSIFICATION_TYPE":"U","NORAD_CAT_ID":68019,"ELEMENT_SET_NO":999,"REV_AT_EPOCH":439,"BSTAR":0.00026420271,"MEAN_MOTION_DOT":0.00039386,"MEAN_MOTION_DDOT":0},{"OBJECT_NAME":"STARLINK-36928","OBJECT_ID":"2026-040F","EPOCH":"2026-03-21T22:00:00.999936","MEAN_MOTION":15.75120188,"ECCENTRICITY":0.00011057,"INCLINATION":97.2846,"RA_OF_ASC_NODE":29.9708,"ARG_OF_PERICENTER":116.9183,"MEAN_ANOMALY":121.9257,"EPHEMERIS_TYPE":0,"CLASSIFICATION_TYPE":"U","NORAD_CAT_ID":68020,"ELEMENT_SET_NO":999,"REV_AT_EPOCH":439,"BSTAR":0.00057161627,"MEAN_MOTION_DOT":0.0008573,"MEAN_MOTION_DDOT":0},{"OBJECT_NAME":"STARLINK-36858","OBJECT_ID":"2026-040G","EPOCH":"2026-03-22T06:02:35.187360","MEAN_MOTION":15.77922441,"ECCENTRICITY":0.0001325,"INCLINATION":97.2837,"RA_OF_ASC_NODE":30.4865,"ARG_OF_PERICENTER":95.3727,"MEAN_ANOMALY":264.7691,"EPHEMERIS_TYPE":0,"CLASSIFICATION_TYPE":"U","NORAD_CAT_ID":68021,"ELEMENT_SET_NO":999,"REV_AT_EPOCH":334,"BSTAR":-0.0055151,"MEAN_MOTION_DOT":-0.00841886,"MEAN_MOTION_DDOT":0},{"OBJECT_NAME":"STARLINK-36916","OBJECT_ID":"2026-040H","EPOCH":"2026-03-21T22:00:00.999936","MEAN_MOTION":15.75131927,"ECCENTRICITY":0.00012008,"INCLINATION":97.2855,"RA_OF_ASC_NODE":29.9739,"ARG_OF_PERICENTER":78.3569,"MEAN_ANOMALY":172.4712,"EPHEMERIS_TYPE":0,"CLASSIFICATION_TYPE":"U","NORAD_CAT_ID":68022,"ELEMENT_SET_NO":999,"REV_AT_EPOCH":439,"BSTAR":0.0003649127,"MEAN_MOTION_DOT":0.0005451,"MEAN_MOTION_DDOT":0},{"OBJECT_NAME":"STARLINK-36871","OBJECT_ID":"2026-040J","EPOCH":"2026-03-21T22:00:00.999936","MEAN_MOTION":15.75140325,"ECCENTRICITY":0.00014709,"INCLINATION":97.2852,"RA_OF_ASC_NODE":29.9742,"ARG_OF_PERICENTER":97.6076,"MEAN_ANOMALY":155.2155,"EPHEMERIS_TYPE":0,"CLASSIFICATION_TYPE":"U","NORAD_CAT_ID":68023,"ELEMENT_SET_NO":999,"REV_AT_EPOCH":439,"BSTAR":0.0002729799,"MEAN_MOTION_DOT":0.00040694,"MEAN_MOTION_DDOT":0},{"OBJECT_NAME":"STARLINK-36891","OBJECT_ID":"2026-040K","EPOCH":"2026-03-21T22:00:00.999936","MEAN_MOTION":15.75127527,"ECCENTRICITY":0.0001423,"INCLINATION":97.2854,"RA_OF_ASC_NODE":29.9762,"ARG_OF_PERICENTER":96.8852,"MEAN_ANOMALY":159.9461,"EPHEMERIS_TYPE":0,"CLASSIFICATION_TYPE":"U","NORAD_CAT_ID":68024,"ELEMENT_SET_NO":999,"REV_AT_EPOCH":439,"BSTAR":0.00049756007,"MEAN_MOTION_DOT":0.00074533,"MEAN_MOTION_DDOT":0},{"OBJECT_NAME":"STARLINK-36378","OBJECT_ID":"2026-040L","EPOCH":"2026-03-21T22:00:00.999936","MEAN_MOTION":15.75080002,"ECCENTRICITY":0.00015386,"INCLINATION":97.2849,"RA_OF_ASC_NODE":29.9831,"ARG_OF_PERICENTER":56.4568,"MEAN_ANOMALY":208.4334,"EPHEMERIS_TYPE":0,"CLASSIFICATION_TYPE":"U","NORAD_CAT_ID":68025,"ELEMENT_SET_NO":999,"REV_AT_EPOCH":434,"BSTAR":0.00056648874,"MEAN_MOTION_DOT":0.00084805,"MEAN_MOTION_DDOT":0}]
